{"type": "FeatureCollection", "features": [{"type": "Feature", "properties": {"norad_id": 24876, "name": "GPS BIIR-2  (PRN 13)", "group": "gnss", "lat": -50.79597240921607, "lon": 49.56397502831474, "alt_km": 20337.89696074613, "timestamp": "2025-12-18T14:52:08.267030+00:00", "meta": {"OBJECT_NAME": "GPS BIIR-2  (PRN 13)", "OBJECT_ID": "1997-035A", "EPOCH": "2025-12-17T17:14:35.709504", "MEAN_MOTION": 2.00563699, "ECCENTRICITY": 0.00967771, "INCLINATION": 55.8976, "RA_OF_ASC_NODE": 105.6742, "ARG_OF_PERICENTER": 56.9662, "MEAN_ANOMALY": 303.9295, "EPHEMERIS_TYPE": 0, "CLASSIFICATION_TYPE": "U", "NORAD_CAT_ID": 24876, "ELEMENT_SET_NO": 999, "REV_AT_EPOCH": 20831, "BSTAR": 0, "MEAN_MOTION_DOT": -2.3e-07, "MEAN_MOTION_DDOT": 0}, "tle": {"line1": "1 24876U 97035A   25351.71846886 -.00000023  00000+0  00000+0 0  9999", "line2": "2 24876  55.8976 105.6742 0096777  56.9662 303.9295  2.00563699208319"}}, "geometry": {"type": "Point", "coordinates": [49.56397502831474, -50.79597240921607]}}, {"type": "Feature", "properties": {"norad_id": 26360, "name": "GPS BIIR-4  (PRN 20)", "group": "gnss", "lat": 19.277906649071593, "lon": 40.77139156646183, "alt_km": 20260.2143481927, "timestamp": "2025-12-18T14:52:08.267092+00:00", "meta": {"OBJECT_NAME": "GPS BIIR-4  (PRN 20)", "OBJECT_ID": "2000-025A", "EPOCH": "2025-12-18T04:28:10.585632", "MEAN_MOTION": 2.00567362, "ECCENTRICITY": 0.0038886, "INCLINATION": 55.0484, "RA_OF_ASC_NODE": 26.6175, "ARG_OF_PERICENTER": 242.5017, "MEAN_ANOMALY": 188.1576, "EPHEMERIS_TYPE": 0, "CLASSIFICATION_TYPE": "U", "NORAD_CAT_ID": 26360, "ELEMENT_SET_NO": 999, "REV_AT_EPOCH": 18764, "BSTAR": 0, "MEAN_MOTION_DOT": -7.5e-07, "MEAN_MOTION_DDOT": 0}, "tle": {"line1": "1 26360U 00025A   25352.18623363 -.00000075  00000+0  00000+0 0  9994", "line2": "2 26360  55.0484  26.6175 0038886 242.5017 188.1576  2.00567362187649"}}, "geometry": {"type": "Point", "coordinates": [40.77139156646183, 19.277906649071593]}}, {"type": "Feature", "properties": {"norad_id": 26407, "name": "GPS BIIR-5  (PRN 22)", "group": "gnss", "lat": -32.97500668724028, "lon": 69.4878056018397, "alt_km": 20125.529310622227, "timestamp": "2025-12-18T14:52:08.267113+00:00", "meta": {"OBJECT_NAME": "GPS BIIR-5  (PRN 22)", "OBJECT_ID": "2000-040A", "EPOCH": "2025-12-18T01:31:29.889696", "MEAN_MOTION": 2.00568104, "ECCENTRICITY": 0.01257268, "INCLINATION": 54.8896, "RA_OF_ASC_NODE": 222.3573, "ARG_OF_PERICENTER": 301.8987, "MEAN_ANOMALY": 239.8065, "EPHEMERIS_TYPE": 0, "CLASSIFICATION_TYPE": "U", "NORAD_CAT_ID": 26407, "ELEMENT_SET_NO": 999, "REV_AT_EPOCH": 18631, "BSTAR": 0, "MEAN_MOTION_DOT": 7.4e-07, "MEAN_MOTION_DDOT": 0}, "tle": {"line1": "1 26407U 00040A   25352.06354039  .00000074  00000+0  00000+0 0  9999", "line2": "2 26407  54.8896 222.3573 0125726 301.8987 239.8065  2.00568104186312"}}, "geometry": {"type": "Point", "coordinates": [69.4878056018397, -32.97500668724028]}}, {"type": "Feature", "properties": {"norad_id": 27663, "name": "GPS BIIR-8  (PRN 16)", "group": "gnss", "lat": -1.9194426818610077, "lon": -139.1927028932225, "alt_km": 19948.573203314623, "timestamp": "2025-12-18T14:52:08.267129+00:00", "meta": {"OBJECT_NAME": "GPS BIIR-8  (PRN 16)", "OBJECT_ID": "2003-005A", "EPOCH": "2025-12-18T07:42:25.953408", "MEAN_MOTION": 2.00570667, "ECCENTRICITY": 0.01476507, "INCLINATION": 54.922, "RA_OF_ASC_NODE": 222.1563, "ARG_OF_PERICENTER": 51.8768, "MEAN_ANOMALY": 91.7669, "EPHEMERIS_TYPE": 0, "CLASSIFICATION_TYPE": "U", "NORAD_CAT_ID": 27663, "ELEMENT_SET_NO": 999, "REV_AT_EPOCH": 16768, "BSTAR": 0, "MEAN_MOTION_DOT": 7.5e-07, "MEAN_MOTION_DDOT": 0}, "tle": {"line1": "1 27663U 03005A   25352.32113372  .00000075  00000+0  00000+0 0  9991", "line2": "2 27663  54.9220 222.1563 0147650  51.8768  91.7669  2.00570667167686"}}, "geometry": {"type": "Point", "coordinates": [-139.1927028932225, -1.9194426818610077]}}, {"type": "Feature", "properties": {"norad_id": 28190, "name": "GPS BIIR-11 (PRN 19)", "group": "gnss", "lat": 18.317231642480213, "lon": 89.56180799384138, "alt_km": 19896.5114442365, "timestamp": "2025-12-18T14:52:08.267142+00:00", "meta": {"OBJECT_NAME": "GPS BIIR-11 (PRN 19)", "OBJECT_ID": "2004-009A", "EPOCH": "2025-12-18T01:19:43.105728", "MEAN_MOTION": 2.00560667, "ECCENTRICITY": 0.01084092, "INCLINATION": 54.9808, "RA_OF_ASC_NODE": 283.0048, "ARG_OF_PERICENTER": 167.7197, "MEAN_ANOMALY": 302.5438, "EPHEMERIS_TYPE": 0, "CLASSIFICATION_TYPE": "U", "NORAD_CAT_ID": 28190, "ELEMENT_SET_NO": 999, "REV_AT_EPOCH": 15931, "BSTAR": 0, "MEAN_MOTION_DOT": -5.1e-07, "MEAN_MOTION_DDOT": 0}, "tle": {"line1": "1 28190U 04009A   25352.05536002 -.00000051  00000+0  00000+0 0  9996", "line2": "2 28190  54.9808 283.0048 0108409 167.7197 302.5438  2.00560667159317"}}, "geometry": {"type": "Point", "coordinates": [89.56180799384138, 18.317231642480213]}}, {"type": "Feature", "properties": {"norad_id": 28474, "name": "GPS BIIR-13 (PRN 02)", "group": "gnss", "lat": -28.863752552075688, "lon": 174.65851844834245, "alt_km": 20204.672645435476, "timestamp": "2025-12-18T14:52:08.267156+00:00", "meta": {"OBJECT_NAME": "GPS BIIR-13 (PRN 02)", "OBJECT_ID": "2004-045A", "EPOCH": "2025-12-18T01:39:38.765952", "MEAN_MOTION": 2.00569875, "ECCENTRICITY": 0.01708529, "INCLINATION": 55.238, "RA_OF_ASC_NODE": 332.1914, "ARG_OF_PERICENTER": 309.4802, "MEAN_ANOMALY": 231.0384, "EPHEMERIS_TYPE": 0, "CLASSIFICATION_TYPE": "U", "NORAD_CAT_ID": 28474, "ELEMENT_SET_NO": 999, "REV_AT_EPOCH": 15479, "BSTAR": 0, "MEAN_MOTION_DOT": -8.7e-07, "MEAN_MOTION_DDOT": 0}, "tle": {"line1": "1 28474U 04045A   25352.06919868 -.00000087  00000+0  00000+0 0  9996", "line2": "2 28474  55.2380 332.1914 0170852 309.4802 231.0384  2.00569875154791"}}, "geometry": {"type": "Point", "coordinates": [174.65851844834245, -28.863752552075688]}}, {"type": "Feature", "properties": {"norad_id": 28874, "name": "GPS BIIRM-1 (PRN 17)", "group": "gnss", "lat": 3.5347181047120797, "lon": 97.97311718009638, "alt_km": 20341.839140100234, "timestamp": "2025-12-18T14:52:08.267170+00:00", "meta": {"OBJECT_NAME": "GPS BIIRM-1 (PRN 17)", "OBJECT_ID": "2005-038A", "EPOCH": "2025-12-18T01:19:16.809024", "MEAN_MOTION": 2.00578146, "ECCENTRICITY": 0.01314775, "INCLINATION": 55.0272, "RA_OF_ASC_NODE": 280.4869, "ARG_OF_PERICENTER": 293.6658, "MEAN_ANOMALY": 195.7064, "EPHEMERIS_TYPE": 0, "CLASSIFICATION_TYPE": "U", "NORAD_CAT_ID": 28874, "ELEMENT_SET_NO": 999, "REV_AT_EPOCH": 14820, "BSTAR": 0, "MEAN_MOTION_DOT": -4.7e-07, "MEAN_MOTION_DDOT": 0}, "tle": {"line1": "1 28874U 05038A   25352.05505566 -.00000047  00000+0  00000+0 0  9994", "line2": "2 28874  55.0272 280.4869 0131477 293.6658 195.7064  2.00578146148201"}}, "geometry": {"type": "Point", "coordinates": [97.97311718009638, 3.5347181047120797]}}, {"type": "Feature", "properties": {"norad_id": 28899, "name": "INMARSAT 4-F2 (SOUTHPAN/PRN 122)", "group": "gnss", "lat": 3.7608965157537995, "lon": 93.90138276672238, "alt_km": 35796.36677805404, "timestamp": "2025-12-18T14:52:08.267184+00:00", "meta": {"OBJECT_NAME": "INMARSAT 4-F2 (SOUTHPAN/PRN 122)", "OBJECT_ID": "2005-044A", "EPOCH": "2025-12-18T05:10:51.708864", "MEAN_MOTION": 1.00271004, "ECCENTRICITY": 0.00024878, "INCLINATION": 4.8592, "RA_OF_ASC_NODE": 43.7025, "ARG_OF_PERICENTER": 225.9179, "MEAN_ANOMALY": 38.6773, "EPHEMERIS_TYPE": 0, "CLASSIFICATION_TYPE": "U", "NORAD_CAT_ID": 28899, "ELEMENT_SET_NO": 999, "REV_AT_EPOCH": 7370, "BSTAR": 0, "MEAN_MOTION_DOT": -2.4e-06, "MEAN_MOTION_DDOT": 0}, "tle": {"line1": "1 28899U 05044A   25352.21587626 -.00000240  00000+0  00000+0 0  9998", "line2": "2 28899   4.8592  43.7025 0002487 225.9179  38.6773  1.00271004 73709"}}, "geometry": {"type": "Point", "coordinates": [93.90138276672238, 3.7608965157537995]}}, {"type": "Feature", "properties": {"norad_id": 29486, "name": "GPS BIIRM-2 (PRN 31)", "group": "gnss", "lat": 53.50515508790492, "lon": -128.10101216887583, "alt_km": 19924.720344769885, "timestamp": "2025-12-18T14:52:08.267197+00:00", "meta": {"OBJECT_NAME": "GPS BIIRM-2 (PRN 31)", "OBJECT_ID": "2006-042A", "EPOCH": "2025-12-16T18:24:54.505728", "MEAN_MOTION": 2.00554045, "ECCENTRICITY": 0.01073341, "INCLINATION": 54.6946, "RA_OF_ASC_NODE": 158.5809, "ARG_OF_PERICENTER": 52.0567, "MEAN_ANOMALY": 130.2096, "EPHEMERIS_TYPE": 0, "CLASSIFICATION_TYPE": "U", "NORAD_CAT_ID": 29486, "ELEMENT_SET_NO": 999, "REV_AT_EPOCH": 14073, "BSTAR": 0, "MEAN_MOTION_DOT": 8.7e-07, "MEAN_MOTION_DDOT": 0}, "tle": {"line1": "1 29486U 06042A   25350.76729752  .00000087  00000+0  00000+0 0  9994", "line2": "2 29486  54.6946 158.5809 0107334  52.0567 130.2096  2.00554045140735"}}, "geometry": {"type": "Point", "coordinates": [-128.10101216887583, 53.50515508790492]}}, {"type": "Feature", "properties": {"norad_id": 29601, "name": "GPS BIIRM-3 (PRN 12)", "group": "gnss", "lat": 32.914644300458654, "lon": 14.188612112067567, "alt_km": 20029.625704757782, "timestamp": "2025-12-18T14:52:08.267209+00:00", "meta": {"OBJECT_NAME": "GPS BIIRM-3 (PRN 12)", "OBJECT_ID": "2006-052A", "EPOCH": "2025-12-17T22:21:49.009536", "MEAN_MOTION": 2.00574024, "ECCENTRICITY": 0.00876985, "INCLINATION": 54.9696, "RA_OF_ASC_NODE": 221.1922, "ARG_OF_PERICENTER": 87.4131, "MEAN_ANOMALY": 273.6858, "EPHEMERIS_TYPE": 0, "CLASSIFICATION_TYPE": "U", "NORAD_CAT_ID": 29601, "ELEMENT_SET_NO": 999, "REV_AT_EPOCH": 13977, "BSTAR": 0, "MEAN_MOTION_DOT": 7.5e-07, "MEAN_MOTION_DDOT": 0}, "tle": {"line1": "1 29601U 06052A   25351.93181724  .00000075  00000+0  00000+0 0  9992", "line2": "2 29601  54.9696 221.1922 0087698  87.4131 273.6858  2.00574024139770"}}, "geometry": {"type": "Point", "coordinates": [14.188612112067567, 32.914644300458654]}}]}